{"type":"FeatureCollection","features":[{"type":"Feature","geometry":{"type":"Polygon","coordinates":[[[-78.57,-2.56],[-78.56,-2.56],[-78.44,-2.59],[-78.42,-2.63],[-78.58,-2.71],[-78.62,-2.78],[-78.57,-2.85],[-78.63,-2.91],[-78.7,-3.13],[-78.75,-3.15],[-78.95,-3.3],[-78.94,-3.34],[-79.03,-3.37],[-79.06,-3.43],[-79.06,-3.6],[-79.1,-3.63],[-79.18,-3.44],[-79.29,-3.47],[-79.33,-3.34],[-79.46,-3.33],[-79.52,-3.31],[-79.66,-3.33],[-79.6,-3.18],[-79.63,-3.14],[-79.76,-3.06],[-79.73,-2.98],[-79.66,-2.97],[-79.59,-2.9],[-79.65,-2.82],[-79.62,-2.75],[-79.53,-2.73],[-79.5,-2.66],[-79.43,-2.58],[-79.43,-2.5],[-79.37,-2.56],[-79.26,-2.57],[-79.24,-2.68],[-79.21,-2.72],[-79.08,-2.73],[-79.02,-2.69],[-78.94,-2.83],[-78.82,-2.83],[-78.77,-2.67],[-78.71,-2.69],[-78.62,-2.63],[-78.57,-2.56]]]},"properties":{"id_prov":1,"dpa_provin":"01","dpa_despro":"AZUAY","dpa_valor":0,"dpa_anio":"2012","rei_codigo":"05","ren_codigo":"01","pee_codigo":"593","codigo":1,"codigo_1":1,"nombre":"AZUAY","pob_mas":337044,"pob_fem":375083,"pob_tot":712127,"si_lee":591470,"no_lee":51920,"total":643390,"analfabeti":6.7,"promedio_e":9.01,"pobres_nbi":338073,"no_pobres":361875,"pob_nopob_":699948,"densidad":85.7,"edad_media":28.85,"cartodb_id":1,"created_at":"2015-04-20T23:35:12Z","updated_at":"2015-04-21T16:01:08Z","name":"AZUAY"},"id":"01"},{"type":"Feature","geometry":{"type":"Polygon","coordinates":[[[-78.86,-1.19],[-78.94,-1.36],[-78.88,-1.46],[-78.9,-1.59],[-78.85,-1.67],[-78.89,-1.75],[-79.01,-1.77],[-79.01,-1.9],[-79.03,-2.06],[-79.03,-2.11],[-79.13,-2.2],[-79.12,-2.11],[-79.2,-2.13],[-79.21,-2.07],[-79.26,-1.96],[-79.21,-1.75],[-79.32,-1.66],[-79.25,-1.56],[-79.32,-1.51],[-79.34,-1.46],[-79.27,-1.34],[-79.35,-1.27],[-79.29,-1.21],[-79.14,-1.16],[-79.09,-1.16],[-78.99,-1.22],[-78.92,-1.18],[-78.86,-1.19]]]},"properties":{"id_prov":2,"dpa_provin":"02","dpa_despro":"BOLIVAR","dpa_valor":0,"dpa_anio":"2012","rei_codigo":"02","ren_codigo":"01","pee_codigo":"593","codigo":2,"codigo_1":2,"nombre":"BOLIVAR","pob_mas":89875,"pob_fem":93766,"pob_tot":183641,"si_lee":142762,"no_lee":22157,"total":164919,"analfabeti":13.9,"promedio_e":7.79,"pobres_nbi":139044,"no_pobres":43098,"pob_nopob_":182142,"densidad":46.55,"edad_media":29.24,"cartodb_id":2,"created_at":"2015-04-20T23:35:12Z","updated_at":"2015-04-21T16:01:30Z","name":"BOLIVAR"},"id":"02"},{"type":"Feature","geometry":{"type":"Polygon","coordinates":[[[-78.57,-2.56],[-78.62,-2.63],[-78.71,-2.69],[-78.77,-2.67],[-78.82,-2.83],[-78.94,-2.83],[-79.02,-2.69],[-79.08,-2.73],[-79.21,-2.72],[-79.24,-2.68],[-79.26,-2.57],[-79.37,-2.56],[-79.43,-2.5],[-79.48,-2.47],[-79.42,-2.38],[-79.36,-2.36],[-79.3,-2.4],[-79.23,-2.41],[-79.21,-2.31],[-79.18,-2.3],[-79.14,-2.21],[-79.03,-2.36],[-78.91,-2.42],[-78.81,-2.38],[-78.78,-2.44],[-78.72,-2.43],[-78.57,-2.56]]]},"properties":{"id_prov":3,"dpa_provin":"03","dpa_despro":"CAÑAR","dpa_valor":0,"dpa_anio":"2012","rei_codigo":"05","ren_codigo":"01","pee_codigo":"593","codigo":3,"codigo_1":3,"nombre":"CAÑAR","pob_mas":105235,"pob_fem":119949,"pob_tot":225184,"si_lee":177950,"no_lee":24313,"total":202263,"analfabeti":12.2,"promedio_e":7.75,"pobres_nbi":150549,"no_pobres":72654,"pob_nopob_":223203,"densidad":71.58,"edad_media":28.58,"cartodb_id":3,"created_at":"2015-04-20T23:35:12Z","updated_at":"2015-04-21T16:01:49Z","name":"CAÑAR"},"id":"03"},{"type":"Feature","geometry":{"type":"Polygon","coordinates":[[[-77.53,0.65],[-77.66,0.65],[-77.68,0.56],[-77.75,0.51],[-77.81,0.4],[-77.81,0.36],[-77.92,0.4],[-78.01,0.47],[-78.09,0.48],[-78.13,0.53],[-78.14,0.63],[-78.27,0.78],[-78.39,0.83],[-78.45,0.88],[-78.55,0.94],[-78.54,1.05],[-78.5,1.07],[-78.51,1.19],[-78.42,1.16],[-78.31,1.19],[-78.28,1.06],[-78.21,1],[-78.2,0.95],[-78.11,0.93],[-77.97,0.82],[-77.87,0.8],[-77.72,0.85],[-77.67,0.82],[-77.7,0.74],[-77.66,0.71],[-77.53,0.65]]]},"properties":{"id_prov":4,"dpa_provin":"04","dpa_despro":"CARCHI","dpa_valor":0,"dpa_anio":"2012","rei_codigo":"04","ren_codigo":"01","pee_codigo":"593","codigo":4,"codigo_1":4,"nombre":"CARCHI","pob_mas":81155,"pob_fem":83369,"pob_tot":164524,"si_lee":137710,"no_lee":11452,"total":149162,"analfabeti":6.2,"promedio_e":8.36,"pobres_nbi":93049,"no_pobres":69728,"pob_nopob_":162777,"densidad":43.52,"edad_media":29.74,"cartodb_id":4,"created_at":"2015-04-20T23:35:12Z","updated_at":"2015-04-21T16:01:54Z","name":"CARCHI"},"id":"04"},{"type":"Feature","geometry":{"type":"Polygon","coordinates":[[[-78.42,-0.72],[-78.39,-0.75],[-78.43,-0.89],[-78.4,-0.99],[-78.46,-1.08],[-78.56,-1.06],[-78.67,-1.15],[-78.74,-1.13],[-78.82,-1.15],[-78.86,-1.19],[-78.92,-1.18],[-78.99,-1.22],[-79.09,-1.16],[-79.14,-1.16],[-79.29,-1.21],[-79.34,-1.12],[-79.29,-1],[-79.29,-0.89],[-79.24,-0.87],[-79.22,-0.81],[-79.14,-0.71],[-79.08,-0.57],[-79.11,-0.54],[-79.06,-0.51],[-79.01,-0.42],[-78.96,-0.4],[-78.94,-0.33],[-78.84,-0.48],[-78.83,-0.52],[-78.73,-0.56],[-78.74,-0.62],[-78.67,-0.66],[-78.61,-0.6],[-78.51,-0.61],[-78.42,-0.72]]]},"properties":{"id_prov":5,"dpa_provin":"05","dpa_despro":"COTOPAXI","dpa_valor":0,"dpa_anio":"2012","rei_codigo":"02","ren_codigo":"01","pee_codigo":"593","codigo":5,"codigo_1":5,"nombre":"COTOPAXI","pob_mas":198625,"pob_fem":210580,"pob_tot":409205,"si_lee":317778,"no_lee":48936,"total":366714,"analfabeti":13.6,"promedio_e":7.82,"pobres_nbi":304474,"no_pobres":101152,"pob_nopob_":405626,"densidad":66.99,"edad_media":28.04,"cartodb_id":5,"created_at":"2015-04-20T23:35:12Z","updated_at":"2015-04-21T16:02:12Z","name":"COTOPAXI"},"id":"05"},{"type":"Feature","geometry":{"type":"Polygon","coordinates":[[[-78.36,-1.52],[-78.36,-1.64],[-78.43,-1.68],[-78.44,-1.77],[-78.4,-1.88],[-78.49,-1.96],[-78.44,-2.01],[-78.45,-2.12],[-78.5,-2.16],[-78.5,-2.24],[-78.56,-2.33],[-78.48,-2.37],[-78.47,-2.43],[-78.51,-2.54],[-78.56,-2.56],[-78.57,-2.56],[-78.72,-2.43],[-78.78,-2.44],[-78.81,-2.38],[-78.91,-2.42],[-79.03,-2.36],[-79.14,-2.21],[-79.13,-2.2],[-79.03,-2.11],[-79.03,-2.06],[-79.01,-1.9],[-79.01,-1.77],[-78.89,-1.75],[-78.85,-1.67],[-78.9,-1.59],[-78.88,-1.46],[-78.78,-1.43],[-78.71,-1.49],[-78.62,-1.51],[-78.48,-1.45],[-78.36,-1.52]]]},"properties":{"id_prov":6,"dpa_provin":"06","dpa_despro":"CHIMBORAZO","dpa_valor":0,"dpa_anio":"2012","rei_codigo":"02","ren_codigo":"01","pee_codigo":"593","codigo":6,"codigo_1":6,"nombre":"CHIMBORAZO","pob_mas":219401,"pob_fem":239180,"pob_tot":458581,"si_lee":359647,"no_lee":53670,"total":413317,"analfabeti":13.5,"promedio_e":8.16,"pobres_nbi":301653,"no_pobres":151654,"pob_nopob_":453307,"densidad":70.55,"edad_media":29.24,"cartodb_id":6,"created_at":"2015-04-20T23:35:12Z","updated_at":"2015-04-21T16:02:18Z","name":"CHIMBORAZO"},"id":"06"},{"type":"Feature","geometry":{"type":"Polygon","coordinates":[[[-79.76,-3.06],[-79.63,-3.14],[-79.6,-3.18],[-79.66,-3.33],[-79.52,-3.31],[-79.46,-3.33],[-79.47,-3.4],[-79.42,-3.44],[-79.48,-3.51],[-79.48,-3.58],[-79.39,-3.61],[-79.37,-3.66],[-79.45,-3.81],[-79.56,-3.8],[-79.61,-3.75],[-79.68,-3.78],[-79.72,-3.83],[-79.8,-3.85],[-79.86,-3.82],[-79.96,-3.83],[-80.03,-3.87],[-80.13,-3.89],[-80.18,-3.79],[-80.19,-3.6],[-80.24,-3.49],[-80.22,-3.44],[-80.06,-3.42],[-80.02,-3.36],[-80,-3.25],[-79.92,-3.18],[-79.87,-3.06],[-79.76,-3.06]]]},"properties":{"id_prov":7,"dpa_provin":"07","dpa_despro":"EL ORO","dpa_valor":0,"dpa_anio":"2012","rei_codigo":"03","ren_codigo":"02","pee_codigo":"593","codigo":7,"codigo_1":7,"nombre":"EL ORO","pob_mas":304362,"pob_fem":296297,"pob_tot":600659,"si_lee":515373,"no_lee":29506,"total":544879,"analfabeti":4.1,"promedio_e":9.18,"pobres_nbi":363174,"no_pobres":229862,"pob_nopob_":593036,"densidad":104.16,"edad_media":28.8,"cartodb_id":7,"created_at":"2015-04-20T23:35:12Z","updated_at":"2015-04-21T16:02:41Z","name":"EL ORO"},"id":"07"},{"type":"Feature","geometry":{"type":"Polygon","coordinates":[[[-78.51,1.19],[-78.5,1.07],[-78.54,1.05],[-78.55,0.94],[-78.45,0.88],[-78.44,0.81],[-78.52,0.76],[-78.43,0.59],[-78.45,0.54],[-78.54,0.52],[-78.61,0.42],[-78.68,0.37],[-78.72,0.4],[-78.81,0.4],[-78.92,0.36],[-79.02,0.31],[-79.16,0.35],[-79.27,0.32],[-79.35,0.21],[-79.33,0.15],[-79.37,0.03],[-79.29,0.02],[-79.35,-0.11],[-79.55,-0.1],[-79.6,-0.06],[-79.62,0.04],[-79.6,0.12],[-79.71,0.18],[-79.67,0.26],[-79.72,0.29],[-79.71,0.34],[-79.89,0.31],[-79.9,0.29],[-79.99,0.29],[-79.98,0.36],[-80.06,0.46],[-80.01,0.55],[-80.01,0.61],[-80.1,0.68],[-80.09,0.78],[-80.06,0.82],[-79.95,0.83],[-79.81,0.9],[-79.74,0.97],[-79.65,0.99],[-79.54,1],[-79.43,1.07],[-79.25,1.07],[-79.13,1.12],[-79.06,1.21],[-78.95,1.15],[-78.96,1.22],[-78.86,1.26],[-78.83,1.3],[-78.84,1.41],[-78.8,1.41],[-78.66,1.32],[-78.59,1.24],[-78.55,1.24],[-78.51,1.19]]]},"properties":{"id_prov":8,"dpa_provin":"08","dpa_despro":"ESMERALDAS","dpa_valor":0,"dpa_anio":"2012","rei_codigo":"04","ren_codigo":"02","pee_codigo":"593","codigo":8,"codigo_1":8,"nombre":"ESMERALDAS","pob_mas":271312,"pob_fem":262780,"pob_tot":534092,"si_lee":413176,"no_lee":56418,"total":469594,"analfabeti":9.8,"promedio_e":7.9,"pobres_nbi":415046,"no_pobres":114986,"pob_nopob_":530032,"densidad":33.11,"edad_media":25.79,"cartodb_id":8,"created_at":"2015-04-20T23:35:12Z","updated_at":"2015-04-21T16:02:46Z","name":"ESMERALDAS"},"id":"08"},{"type":"Feature","geometry":{"type":"MultiPolygon","coordinates":[[[[-80,-2.68],[-79.9,-2.74],[-79.93,-2.79],[-79.99,-2.81],[-80.03,-2.86],[-80.13,-2.83],[-80.16,-2.88],[-80.09,-2.96],[-80.13,-3.02],[-80.2,-3.04],[-80.26,-3],[-80.26,-2.84],[-80.21,-2.73],[-80.04,-2.67],[-80,-2.68]]],[[[-79.97,-2.51],[-79.99,-2.59],[-80.06,-2.59],[-80,-2.49],[-79.97,-2.51]]],[[[-79.85,-2.29],[-79.86,-2.41],[-79.92,-2.36],[-79.91,-2.3],[-79.85,-2.29]]],[[[-79.2,-2.13],[-79.12,-2.11],[-79.13,-2.2],[-79.14,-2.21],[-79.18,-2.3],[-79.21,-2.31],[-79.29,-2.32],[-79.36,-2.36],[-79.42,-2.38],[-79.48,-2.47],[-79.43,-2.5],[-79.43,-2.58],[-79.5,-2.66],[-79.53,-2.73],[-79.62,-2.75],[-79.65,-2.82],[-79.59,-2.9],[-79.66,-2.97],[-79.73,-2.98],[-79.76,-3.06],[-79.87,-3.06],[-79.85,-3.01],[-79.86,-2.89],[-79.8,-2.79],[-79.78,-2.66],[-79.73,-2.64],[-79.69,-2.53],[-79.77,-2.52],[-79.83,-2.4],[-79.83,-2.21],[-79.87,-2.28],[-79.96,-2.24],[-80.03,-2.39],[-80.08,-2.43],[-80.08,-2.49],[-80.17,-2.6],[-80.26,-2.64],[-80.24,-2.74],[-80.3,-2.72],[-80.4,-2.64],[-80.45,-2.63],[-80.56,-2.51],[-80.5,-2.5],[-80.46,-2.41],[-80.37,-2.35],[-80.28,-2.33],[-80.28,-2.27],[-80.22,-2.23],[-80.25,-2.12],[-80.44,-1.94],[-80.42,-1.79],[-80.31,-1.69],[-80.23,-1.69],[-80.2,-1.42],[-80.15,-1.41],[-80.14,-1.32],[-80.09,-1.32],[-80.01,-1.24],[-79.98,-1.18],[-79.84,-1.08],[-79.73,-0.88],[-79.71,-0.88],[-79.66,-0.9],[-79.61,-0.85],[-79.51,-0.85],[-79.51,-0.94],[-79.54,-1.05],[-79.62,-1.06],[-79.65,-1.12],[-79.75,-1.19],[-79.75,-1.24],[-79.87,-1.44],[-79.87,-1.6],[-79.82,-1.71],[-79.75,-1.74],[-79.73,-1.84],[-79.66,-1.92],[-79.54,-1.88],[-79.49,-1.88],[-79.45,-1.93],[-79.37,-1.97],[-79.29,-2.1],[-79.2,-2.13]]]]},"properties":{"id_prov":9,"dpa_provin":"09","dpa_despro":"GUAYAS","dpa_valor":0,"dpa_anio":"2012","rei_codigo":"03","ren_codigo":"02","pee_codigo":"593","codigo":9,"codigo_1":9,"nombre":"GUAYAS","pob_mas":1815914,"pob_fem":1829569,"pob_tot":3645483,"si_lee":3084498,"no_lee":201307,"total":3285805,"analfabeti":5,"promedio_e":9.37,"pobres_nbi":2103761,"no_pobres":1498111,"pob_nopob_":3601872,"densidad":236.25,"edad_media":28.71,"cartodb_id":9,"created_at":"2015-04-20T23:35:12Z","updated_at":"2015-04-21T16:02:59Z","name":"GUAYAS"},"id":"09"},{"type":"Feature","geometry":{"type":"Polygon","coordinates":[[[-77.81,0.36],[-77.88,0.2],[-77.97,0.16],[-78.03,0.19],[-78.1,0.18],[-78.16,0.14],[-78.25,0.12],[-78.38,0.25],[-78.51,0.23],[-78.72,0.22],[-78.83,0.24],[-78.95,0.2],[-79.02,0.27],[-78.92,0.36],[-78.81,0.4],[-78.72,0.4],[-78.68,0.37],[-78.61,0.42],[-78.54,0.52],[-78.45,0.54],[-78.43,0.59],[-78.52,0.76],[-78.44,0.81],[-78.45,0.88],[-78.39,0.83],[-78.27,0.78],[-78.14,0.63],[-78.13,0.53],[-78.09,0.48],[-78.01,0.47],[-77.92,0.4],[-77.81,0.36]]]},"properties":{"id_prov":10,"dpa_provin":"10","dpa_despro":"IMBABURA","dpa_valor":0,"dpa_anio":"2012","rei_codigo":"04","ren_codigo":"01","pee_codigo":"593","codigo":10,"codigo_1":10,"nombre":"IMBABURA","pob_mas":193664,"pob_fem":204580,"pob_tot":398244,"si_lee":318249,"no_lee":40999,"total":359248,"analfabeti":10.6,"promedio_e":8.47,"pobres_nbi":214241,"no_pobres":181164,"pob_nopob_":395405,"densidad":86.81,"edad_media":28.88,"cartodb_id":10,"created_at":"2015-04-20T23:35:12Z","updated_at":"2015-04-21T16:03:16Z","name":"IMBABURA"},"id":"10"},{"type":"Feature","geometry":{"type":"Polygon","coordinates":[[[-79.1,-3.63],[-79.2,-3.73],[-79.13,-3.89],[-79.16,-4.12],[-79.11,-4.19],[-79.11,-4.4],[-79.17,-4.47],[-79.27,-4.47],[-79.33,-4.51],[-79.33,-4.61],[-79.43,-4.74],[-79.49,-4.63],[-79.49,-4.53],[-79.54,-4.53],[-79.64,-4.43],[-79.75,-4.48],[-79.81,-4.49],[-79.87,-4.41],[-79.96,-4.4],[-80.1,-4.29],[-80.18,-4.3],[-80.22,-4.38],[-80.33,-4.47],[-80.38,-4.48],[-80.45,-4.44],[-80.45,-4.38],[-80.33,-4.22],[-80.43,-4.2],[-80.49,-4.08],[-80.45,-4],[-80.37,-3.98],[-80.3,-4.02],[-80.24,-3.96],[-80.13,-3.89],[-80.03,-3.87],[-79.96,-3.83],[-79.86,-3.82],[-79.8,-3.85],[-79.72,-3.83],[-79.68,-3.78],[-79.61,-3.75],[-79.56,-3.8],[-79.45,-3.81],[-79.37,-3.66],[-79.39,-3.61],[-79.48,-3.58],[-79.48,-3.51],[-79.42,-3.44],[-79.47,-3.4],[-79.46,-3.33],[-79.33,-3.34],[-79.29,-3.47],[-79.18,-3.44],[-79.1,-3.63]]]},"properties":{"id_prov":11,"dpa_provin":"11","dpa_despro":"LOJA","dpa_valor":0,"dpa_anio":"2012","rei_codigo":"05","ren_codigo":"01","pee_codigo":"593","codigo":11,"codigo_1":11,"nombre":"LOJA","pob_mas":220794,"pob_fem":228172,"pob_tot":448966,"si_lee":374785,"no_lee":29978,"total":404763,"analfabeti":5.8,"promedio_e":9.09,"pobres_nbi":273824,"no_pobres":169006,"pob_nopob_":442830,"densidad":40.58,"edad_media":29.44,"cartodb_id":11,"created_at":"2015-04-20T23:35:12Z","updated_at":"2015-04-21T16:03:19Z","name":"LOJA"},"id":"11"},{"type":"Feature","geometry":{"type":"Polygon","coordinates":[[[-79.11,-0.54],[-79.08,-0.57],[-79.14,-0.71],[-79.22,-0.81],[-79.24,-0.87],[-79.29,-0.89],[-79.29,-1],[-79.34,-1.12],[-79.29,-1.21],[-79.35,-1.27],[-79.27,-1.34],[-79.34,-1.46],[-79.32,-1.51],[-79.25,-1.56],[-79.32,-1.66],[-79.21,-1.75],[-79.26,-1.96],[-79.21,-2.07],[-79.2,-2.13],[-79.29,-2.1],[-79.37,-1.97],[-79.45,-1.93],[-79.49,-1.88],[-79.54,-1.88],[-79.66,-1.92],[-79.73,-1.84],[-79.75,-1.74],[-79.82,-1.71],[-79.87,-1.6],[-79.87,-1.44],[-79.75,-1.24],[-79.75,-1.19],[-79.65,-1.12],[-79.62,-1.06],[-79.54,-1.05],[-79.51,-0.94],[-79.51,-0.85],[-79.61,-0.85],[-79.6,-0.74],[-79.51,-0.63],[-79.48,-0.54],[-79.36,-0.54],[-79.36,-0.68],[-79.29,-0.7],[-79.11,-0.54]]]},"properties":{"id_prov":12,"dpa_provin":"12","dpa_despro":"LOS RIOS","dpa_valor":0,"dpa_anio":"2012","rei_codigo":"03","ren_codigo":"02","pee_codigo":"593","codigo":12,"codigo_1":12,"nombre":"LOS RIOS","pob_mas":398099,"pob_fem":380016,"pob_tot":778115,"si_lee":623960,"no_lee":70524,"total":694484,"analfabeti":9.3,"promedio_e":8.08,"pobres_nbi":613969,"no_pobres":158673,"pob_nopob_":772642,"densidad":107.99,"edad_media":27.54,"cartodb_id":12,"created_at":"2015-04-20T23:35:12Z","updated_at":"2015-04-21T16:03:31Z","name":"LOS RIOS"},"id":"12"},{"type":"Feature","geometry":{"type":"Polygon","coordinates":[[[-79.55,-0.1],[-79.51,-0.17],[-79.41,-0.21],[-79.4,-0.4],[-79.46,-0.5],[-79.54,-0.49],[-79.62,-0.56],[-79.71,-0.88],[-79.73,-0.88],[-79.84,-1.08],[-79.98,-1.18],[-80.01,-1.24],[-80.09,-1.32],[-80.14,-1.32],[-80.15,-1.41],[-80.2,-1.42],[-80.23,-1.69],[-80.31,-1.69],[-80.42,-1.79],[-80.44,-1.94],[-80.52,-1.92],[-80.62,-1.71],[-80.64,-1.68],[-80.75,-1.67],[-80.8,-1.71],[-80.85,-1.6],[-80.82,-1.51],[-80.77,-1.48],[-80.76,-1.32],[-80.85,-1.21],[-80.91,-1.06],[-80.83,-0.96],[-80.62,-0.94],[-80.54,-0.86],[-80.51,-0.74],[-80.44,-0.56],[-80.49,-0.4],[-80.4,-0.31],[-80.38,-0.24],[-80.29,-0.19],[-80.14,-0.05],[-80.06,0.06],[-80,0.23],[-79.96,0.2],[-79.9,0.29],[-79.89,0.31],[-79.71,0.34],[-79.72,0.29],[-79.67,0.26],[-79.71,0.18],[-79.6,0.12],[-79.62,0.04],[-79.6,-0.06],[-79.55,-0.1]]]},"properties":{"id_prov":13,"dpa_provin":"13","dpa_despro":"MANABI","dpa_valor":0,"dpa_anio":"2012","rei_codigo":"03","ren_codigo":"02","pee_codigo":"593","codigo":13,"codigo_1":13,"nombre":"MANABI","pob_mas":689299,"pob_fem":680481,"pob_tot":1369780,"si_lee":1096882,"no_lee":133417,"total":1230299,"analfabeti":10.2,"promedio_e":8.21,"pobres_nbi":1043879,"no_pobres":314571,"pob_nopob_":1358450,"densidad":72.32,"edad_media":28.22,"cartodb_id":13,"created_at":"2015-04-20T23:35:12Z","updated_at":"2015-04-21T16:03:53Z","name":"MANABI"},"id":"13"},{"type":"Feature","geometry":{"type":"Polygon","coordinates":[[[-76.69,-2.61],[-77.39,-2.85],[-77.84,-3],[-77.94,-3.07],[-78.14,-3.33],[-78.19,-3.37],[-78.15,-3.48],[-78.22,-3.51],[-78.24,-3.41],[-78.34,-3.38],[-78.37,-3.53],[-78.63,-3.53],[-78.75,-3.57],[-78.83,-3.55],[-78.87,-3.5],[-78.88,-3.4],[-78.94,-3.34],[-78.95,-3.3],[-78.75,-3.15],[-78.7,-3.13],[-78.63,-2.91],[-78.57,-2.85],[-78.62,-2.78],[-78.58,-2.71],[-78.42,-2.63],[-78.44,-2.59],[-78.56,-2.56],[-78.51,-2.54],[-78.47,-2.43],[-78.48,-2.37],[-78.56,-2.33],[-78.5,-2.24],[-78.5,-2.16],[-78.45,-2.12],[-78.44,-2.01],[-78.49,-1.96],[-78.4,-1.88],[-78.44,-1.77],[-78.43,-1.68],[-78.36,-1.64],[-78.36,-1.52],[-78.18,-1.45],[-78.08,-1.5],[-78.02,-1.68],[-77.94,-1.65],[-77.88,-1.71],[-77.82,-1.93],[-77.67,-2.05],[-77.62,-2.04],[-77.29,-2.2],[-77.23,-2.26],[-77.09,-2.35],[-77.03,-2.45],[-76.94,-2.55],[-76.78,-2.55],[-76.69,-2.61]]]},"properties":{"id_prov":14,"dpa_provin":"14","dpa_despro":"MORONA SANTIAGO","dpa_valor":0,"dpa_anio":"2012","rei_codigo":"05","ren_codigo":"03","pee_codigo":"593","codigo":14,"codigo_1":14,"nombre":"MORONA SANTIAGO","pob_mas":74849,"pob_fem":73091,"pob_tot":147940,"si_lee":112931,"no_lee":12998,"total":125929,"analfabeti":6.6,"promedio_e":8.03,"pobres_nbi":109194,"no_pobres":35321,"pob_nopob_":144515,"densidad":6.15,"edad_media":23.21,"cartodb_id":14,"created_at":"2015-04-20T23:35:12Z","updated_at":"2015-04-21T16:03:57Z","name":"MORONA SANTIAGO"},"id":"14"},{"type":"Feature","geometry":{"type":"Polygon","coordinates":[[[-77.31,-0.06],[-77.29,-0.1],[-77.3,-0.2],[-77.26,-0.31],[-77.32,-0.36],[-77.39,-0.49],[-77.43,-0.52],[-77.56,-0.5],[-77.63,-0.54],[-77.54,-0.62],[-77.5,-0.7],[-77.54,-0.79],[-77.55,-0.9],[-77.53,-0.95],[-77.35,-0.86],[-77.28,-0.84],[-77.22,-0.77],[-77.14,-0.9],[-77.09,-0.91],[-77.06,-1.01],[-77.23,-1.03],[-77.24,-1.05],[-77.46,-1.1],[-77.56,-1.16],[-77.7,-1.14],[-77.83,-1.22],[-78,-1.22],[-78.05,-1.25],[-78.12,-1.22],[-78.21,-1.15],[-78.34,-1.14],[-78.33,-1.04],[-78.4,-0.99],[-78.43,-0.89],[-78.39,-0.75],[-78.42,-0.72],[-78.33,-0.66],[-78.28,-0.57],[-78.24,-0.44],[-78.26,-0.41],[-78.19,-0.32],[-78.19,-0.2],[-77.97,-0.12],[-77.92,-0.03],[-77.84,0.03],[-77.79,0.02],[-77.78,-0.08],[-77.63,-0.08],[-77.58,-0.1],[-77.46,-0.02],[-77.44,-0.13],[-77.38,-0.15],[-77.31,-0.06]]]},"properties":{"id_prov":15,"dpa_provin":"15","dpa_despro":"NAPO","dpa_valor":0,"dpa_anio":"2012","rei_codigo":"04","ren_codigo":"03","pee_codigo":"593","codigo":15,"codigo_1":15,"nombre":"NAPO","pob_mas":52774,"pob_fem":50923,"pob_tot":103697,"si_lee":82362,"no_lee":7711,"total":90073,"analfabeti":6.3,"promedio_e":8.77,"pobres_nbi":80061,"no_pobres":21766,"pob_nopob_":101827,"densidad":8.27,"edad_media":24.13,"cartodb_id":15,"created_at":"2015-04-20T23:35:12Z","updated_at":"2015-04-21T16:04:17Z","name":"NAPO"},"id":"15"},{"type":"Feature","geometry":{"type":"Polygon","coordinates":[[[-77.06,-1.01],[-77.06,-1.09],[-76.9,-1.13],[-76.65,-1.06],[-76.52,-1.07],[-76.53,-1.19],[-76.46,-1.26],[-76.41,-1.26],[-76.33,-1.31],[-76.14,-1.28],[-76.01,-1.31],[-75.96,-1.35],[-75.88,-1.36],[-75.63,-1.5],[-75.58,-1.55],[-76.04,-2.12],[-76.63,-2.59],[-76.69,-2.61],[-76.78,-2.55],[-76.94,-2.55],[-77.03,-2.45],[-77.09,-2.35],[-77.23,-2.26],[-77.29,-2.2],[-77.62,-2.04],[-77.67,-2.05],[-77.82,-1.93],[-77.88,-1.71],[-77.94,-1.65],[-78.02,-1.68],[-78.08,-1.5],[-78.18,-1.45],[-78.12,-1.35],[-78.12,-1.22],[-78.05,-1.25],[-78,-1.22],[-77.83,-1.22],[-77.7,-1.14],[-77.56,-1.16],[-77.46,-1.1],[-77.24,-1.05],[-77.23,-1.03],[-77.06,-1.01]]]},"properties":{"id_prov":16,"dpa_provin":"16","dpa_despro":"PASTAZA","dpa_valor":0,"dpa_anio":"2012","rei_codigo":"02","ren_codigo":"03","pee_codigo":"593","codigo":16,"codigo_1":16,"nombre":"PASTAZA","pob_mas":42260,"pob_fem":41673,"pob_tot":83933,"si_lee":66227,"no_lee":6976,"total":73203,"analfabeti":6.9,"promedio_e":8.95,"pobres_nbi":57128,"no_pobres":24858,"pob_nopob_":81986,"densidad":2.83,"edad_media":24.61,"cartodb_id":16,"created_at":"2015-04-20T23:35:12Z","updated_at":"2015-04-21T16:04:22Z","name":"PASTAZA"},"id":"16"},{"type":"Feature","geometry":{"type":"Polygon","coordinates":[[[-78.4,-0.99],[-78.33,-1.04],[-78.34,-1.14],[-78.21,-1.15],[-78.12,-1.22],[-78.12,-1.35],[-78.18,-1.45],[-78.36,-1.52],[-78.48,-1.45],[-78.62,-1.51],[-78.71,-1.49],[-78.78,-1.43],[-78.88,-1.46],[-78.94,-1.36],[-78.86,-1.19],[-78.82,-1.15],[-78.74,-1.13],[-78.67,-1.15],[-78.56,-1.06],[-78.46,-1.08],[-78.4,-0.99]]]},"properties":{"id_prov":18,"dpa_provin":"18","dpa_despro":"TUNGURAHUA","dpa_valor":0,"dpa_anio":"2012","rei_codigo":"02","ren_codigo":"01","pee_codigo":"593","codigo":18,"codigo_1":18,"nombre":"TUNGURAHUA","pob_mas":244783,"pob_fem":259800,"pob_tot":504583,"si_lee":420747,"no_lee":38638,"total":459385,"analfabeti":7.5,"promedio_e":8.89,"pobres_nbi":285524,"no_pobres":215262,"pob_nopob_":500786,"densidad":149.01,"edad_media":30.12,"cartodb_id":18,"created_at":"2015-04-20T23:35:12Z","updated_at":"2015-04-21T16:04:45Z","name":"TUNGURAHUA"},"id":"18"},{"type":"Feature","geometry":{"type":"Polygon","coordinates":[[[-79.02,0.27],[-78.95,0.2],[-78.83,0.24],[-78.72,0.22],[-78.51,0.23],[-78.38,0.25],[-78.25,0.12],[-78.16,0.14],[-78.1,0.18],[-78.03,0.19],[-77.97,0.16],[-77.98,0.11],[-77.89,0.08],[-77.84,0.03],[-77.92,-0.03],[-77.97,-0.12],[-78.19,-0.2],[-78.19,-0.32],[-78.26,-0.41],[-78.24,-0.44],[-78.28,-0.57],[-78.33,-0.66],[-78.42,-0.72],[-78.51,-0.61],[-78.61,-0.6],[-78.67,-0.66],[-78.74,-0.62],[-78.73,-0.56],[-78.83,-0.52],[-78.84,-0.48],[-78.94,-0.33],[-78.86,-0.35],[-78.75,-0.28],[-78.83,-0.19],[-78.84,-0.14],[-78.97,-0.1],[-79.02,-0.12],[-79.15,-0.09],[-79.1,-0.03],[-79.29,0.02],[-79.37,0.03],[-79.33,0.15],[-79.35,0.21],[-79.27,0.32],[-79.13,0.32],[-79.02,0.27]]]},"properties":{"id_prov":17,"dpa_provin":"17","dpa_despro":"PICHINCHA","dpa_valor":0,"dpa_anio":"2012","rei_codigo":"04","ren_codigo":"01","pee_codigo":"593","codigo":17,"codigo_1":17,"nombre":"PICHINCHA","pob_mas":1255711,"pob_fem":1320576,"pob_tot":2576287,"si_lee":2215597,"no_lee":123797,"total":2339394,"analfabeti":3.5,"promedio_e":10.56,"pobres_nbi":855983,"no_pobres":1702467,"pob_nopob_":2558450,"densidad":270.17,"edad_media":29.24,"cartodb_id":17,"created_at":"2015-04-20T23:35:12Z","updated_at":"2015-04-21T16:04:55Z","name":"PICHINCHA"},"id":"17"},{"type":"Feature","geometry":{"type":"Polygon","coordinates":[[[-78.37,-3.53],[-78.42,-3.69],[-78.41,-3.79],[-78.47,-3.85],[-78.49,-3.94],[-78.57,-3.99],[-78.54,-4.07],[-78.58,-4.14],[-78.61,-4.29],[-78.65,-4.36],[-78.63,-4.42],[-78.66,-4.59],[-78.71,-4.63],[-78.84,-4.65],[-78.89,-4.72],[-78.89,-4.89],[-78.97,-4.9],[-79.01,-5.01],[-79.07,-4.97],[-79.26,-4.97],[-79.31,-4.9],[-79.4,-4.83],[-79.43,-4.74],[-79.33,-4.61],[-79.33,-4.51],[-79.27,-4.47],[-79.17,-4.47],[-79.11,-4.4],[-79.11,-4.19],[-79.16,-4.12],[-79.13,-3.89],[-79.2,-3.73],[-79.1,-3.63],[-79.06,-3.6],[-79.06,-3.43],[-79.03,-3.37],[-78.94,-3.34],[-78.88,-3.4],[-78.87,-3.5],[-78.83,-3.55],[-78.75,-3.57],[-78.63,-3.53],[-78.37,-3.53]]]},"properties":{"id_prov":19,"dpa_provin":"19","dpa_despro":"ZAMORA CHINCHIPE","dpa_valor":0,"dpa_anio":"2012","rei_codigo":"05","ren_codigo":"03","pee_codigo":"593","codigo":19,"codigo_1":19,"nombre":"ZAMORA CHINCHIPE","pob_mas":47452,"pob_fem":43924,"pob_tot":91376,"si_lee":73575,"no_lee":6672,"total":80247,"analfabeti":5.5,"promedio_e":8.55,"pobres_nbi":66096,"no_pobres":23413,"pob_nopob_":89509,"densidad":8.63,"edad_media":25.01,"cartodb_id":19,"created_at":"2015-04-20T23:35:12Z","updated_at":"2015-04-21T16:05:12Z","name":"ZAMORA CHINCHIPE"},"id":"19"},{"type":"Feature","geometry":{"type":"MultiPolygon","coordinates":[[[[-83.42,-1.22],[-83.36,-1.26],[-83.39,-1.33],[-83.43,-1.36],[-83.51,-1.32],[-83.48,-1.23],[-83.42,-1.22]]],[[[-82.35,-0.69],[-82.24,-0.72],[-82.44,-0.93],[-82.56,-0.95],[-82.61,-0.89],[-82.49,-0.82],[-82.44,-0.74],[-82.35,-0.69]]],[[[-83.25,-0.49],[-83.17,-0.57],[-83.18,-0.67],[-83.23,-0.74],[-83.41,-0.77],[-83.54,-0.7],[-83.55,-0.62],[-83.48,-0.51],[-83.25,-0.49]]],[[[-84.46,-0.26],[-84.39,-0.33],[-84.39,-0.46],[-84.43,-0.5],[-84.51,-0.51],[-84.6,-0.49],[-84.65,-0.4],[-84.66,-0.3],[-84.56,-0.3],[-84.46,-0.26]]],[[[-83.79,-0.15],[-83.59,-0.23],[-83.55,-0.32],[-83.6,-0.38],[-83.67,-0.35],[-83.74,-0.36],[-83.87,-0.27],[-83.79,-0.15]]],[[[-84.34,0.16],[-84.29,0.08],[-84.2,-0.02],[-84.18,-0.22],[-84.11,-0.31],[-84.04,-0.34],[-83.95,-0.44],[-83.96,-0.57],[-83.9,-0.61],[-83.85,-0.69],[-83.78,-0.76],[-83.82,-0.79],[-83.85,-0.91],[-83.91,-0.95],[-84.18,-1.05],[-84.3,-1.02],[-84.38,-1.02],[-84.51,-0.91],[-84.49,-0.85],[-84.41,-0.77],[-84.3,-0.69],[-84.16,-0.68],[-84.07,-0.61],[-84.21,-0.49],[-84.23,-0.41],[-84.36,-0.3],[-84.39,-0.22],[-84.42,-0.03],[-84.54,0.03],[-84.47,0.11],[-84.39,0.12],[-84.34,0.16]]],[[[-83.48,0.39],[-83.4,0.32],[-83.48,0.28],[-83.54,0.31],[-83.48,0.39]]]]},"properties":{"id_prov":20,"dpa_provin":"20","dpa_despro":"GALAPAGOS","dpa_valor":0,"dpa_anio":"2012","rei_codigo":"03","ren_codigo":"04","pee_codigo":"593","codigo":20,"codigo_1":20,"nombre":"GALAPAGOS","pob_mas":13021,"pob_fem":12103,"pob_tot":25124,"si_lee":22322,"no_lee":667,"total":22989,"analfabeti":1.3,"promedio_e":10.36,"pobres_nbi":11978,"no_pobres":11055,"pob_nopob_":23033,"densidad":3.14,"edad_media":28.83,"cartodb_id":20,"created_at":"2015-04-20T23:35:12Z","updated_at":"2015-04-21T16:05:16Z","name":"GALAPAGOS"},"id":"20"},{"type":"Feature","geometry":{"type":"Polygon","coordinates":[[[-75.26,-0.66],[-75.39,-0.61],[-75.47,-0.55],[-75.55,-0.55],[-75.6,-0.49],[-75.74,-0.42],[-75.83,-0.44],[-75.88,-0.42],[-75.97,-0.56],[-76.06,-0.51],[-76.08,-0.44],[-76.27,-0.45],[-76.39,-0.52],[-76.47,-0.49],[-76.5,-0.44],[-76.69,-0.37],[-76.76,-0.26],[-76.85,-0.17],[-76.9,-0.08],[-76.97,-0.07],[-77.03,-0.11],[-77.2,-0.1],[-77.31,-0.06],[-77.38,-0.15],[-77.44,-0.13],[-77.46,-0.02],[-77.58,-0.1],[-77.63,-0.08],[-77.78,-0.08],[-77.79,0.02],[-77.84,0.03],[-77.89,0.08],[-77.98,0.11],[-77.97,0.16],[-77.88,0.2],[-77.81,0.36],[-77.81,0.4],[-77.75,0.51],[-77.68,0.56],[-77.66,0.65],[-77.53,0.65],[-77.48,0.64],[-77.52,0.52],[-77.52,0.42],[-77.42,0.42],[-77.29,0.36],[-77.11,0.37],[-77.08,0.29],[-77,0.3],[-76.91,0.25],[-76.85,0.24],[-76.73,0.29],[-76.63,0.26],[-76.58,0.22],[-76.41,0.24],[-76.41,0.38],[-76.33,0.39],[-76.31,0.43],[-76.18,0.37],[-76.13,0.37],[-76.02,0.3],[-75.94,0.2],[-75.81,0.08],[-75.75,0.04],[-75.66,0.04],[-75.58,0.01],[-75.43,-0.08],[-75.3,-0.11],[-75.32,-0.16],[-75.42,-0.16],[-75.52,-0.11],[-75.61,-0.11],[-75.61,-0.19],[-75.54,-0.18],[-75.48,-0.24],[-75.47,-0.3],[-75.39,-0.44],[-75.32,-0.46],[-75.24,-0.53],[-75.22,-0.62],[-75.26,-0.66]]]},"properties":{"id_prov":21,"dpa_provin":"21","dpa_despro":"SUCUMBIOS","dpa_valor":0,"dpa_anio":"2012","rei_codigo":"04","ren_codigo":"03","pee_codigo":"593","codigo":21,"codigo_1":21,"nombre":"SUCUMBIOS","pob_mas":92848,"pob_fem":83624,"pob_tot":176472,"si_lee":140690,"no_lee":14488,"total":155178,"analfabeti":6.8,"promedio_e":8.07,"pobres_nbi":149459,"no_pobres":22239,"pob_nopob_":171698,"densidad":9.76,"edad_media":24.86,"cartodb_id":21,"created_at":"2015-04-20T23:35:12Z","updated_at":"2015-04-21T16:05:35Z","name":"SUCUMBIOS"},"id":"21"},{"type":"Feature","geometry":{"type":"Polygon","coordinates":[[[-75.26,-0.66],[-75.27,-0.79],[-75.22,-0.87],[-75.26,-0.97],[-75.31,-0.99],[-75.39,-0.93],[-75.56,-1.55],[-75.58,-1.55],[-75.63,-1.5],[-75.88,-1.36],[-75.96,-1.35],[-76.01,-1.31],[-76.14,-1.28],[-76.33,-1.31],[-76.41,-1.26],[-76.46,-1.26],[-76.53,-1.19],[-76.52,-1.07],[-76.65,-1.06],[-76.9,-1.13],[-77.06,-1.09],[-77.06,-1.01],[-77.09,-0.91],[-77.14,-0.9],[-77.22,-0.77],[-77.28,-0.84],[-77.35,-0.86],[-77.53,-0.95],[-77.55,-0.9],[-77.54,-0.79],[-77.5,-0.7],[-77.54,-0.62],[-77.63,-0.54],[-77.56,-0.5],[-77.43,-0.52],[-77.39,-0.49],[-77.32,-0.36],[-77.26,-0.31],[-77.3,-0.2],[-77.29,-0.1],[-77.31,-0.06],[-77.2,-0.1],[-77.03,-0.11],[-76.97,-0.07],[-76.9,-0.08],[-76.85,-0.17],[-76.76,-0.26],[-76.69,-0.37],[-76.5,-0.44],[-76.47,-0.49],[-76.39,-0.52],[-76.27,-0.45],[-76.08,-0.44],[-76.06,-0.51],[-75.97,-0.56],[-75.88,-0.42],[-75.83,-0.44],[-75.74,-0.42],[-75.6,-0.49],[-75.55,-0.55],[-75.47,-0.55],[-75.39,-0.61],[-75.26,-0.66]]]},"properties":{"id_prov":22,"dpa_provin":"22","dpa_despro":"ORELLANA","dpa_valor":0,"dpa_anio":"2012","rei_codigo":"04","ren_codigo":"03","pee_codigo":"593","codigo":22,"codigo_1":22,"nombre":"ORELLANA","pob_mas":72130,"pob_fem":64266,"pob_tot":136396,"si_lee":106775,"no_lee":10986,"total":117761,"analfabeti":6.5,"promedio_e":8.08,"pobres_nbi":112766,"no_pobres":19888,"pob_nopob_":132654,"densidad":6.29,"edad_media":23.53,"cartodb_id":22,"created_at":"2015-04-20T23:35:12Z","updated_at":"2015-04-21T16:05:40Z","name":"ORELLANA"},"id":"22"},{"type":"Feature","geometry":{"type":"Polygon","coordinates":[[[-78.94,-0.33],[-78.96,-0.4],[-79.01,-0.42],[-79.06,-0.51],[-79.11,-0.54],[-79.29,-0.7],[-79.36,-0.68],[-79.36,-0.54],[-79.48,-0.54],[-79.46,-0.5],[-79.4,-0.4],[-79.41,-0.21],[-79.51,-0.17],[-79.55,-0.1],[-79.35,-0.11],[-79.29,0.02],[-79.1,-0.03],[-79.15,-0.09],[-79.02,-0.12],[-78.97,-0.1],[-78.84,-0.14],[-78.83,-0.19],[-78.75,-0.28],[-78.86,-0.35],[-78.94,-0.33]]]},"properties":{"id_prov":23,"dpa_provin":"23","dpa_despro":"SANTO DOMINGO DE LOS TSACHILAS","dpa_valor":0,"dpa_anio":"2012","rei_codigo":"04","ren_codigo":"01","pee_codigo":"593","codigo":23,"codigo_1":23,"nombre":"SANTO DOMINGO","pob_mas":183058,"pob_fem":184955,"pob_tot":368013,"si_lee":301485,"no_lee":26121,"total":327606,"analfabeti":6.3,"promedio_e":8.51,"pobres_nbi":272700,"no_pobres":94008,"pob_nopob_":366708,"densidad":106.77,"edad_media":26.55,"cartodb_id":23,"created_at":"2015-04-20T23:35:12Z","updated_at":"2015-04-21T16:06:02Z","name":"SANTO DOMINGO"},"id":"23"},{"type":"Feature","geometry":{"type":"Polygon","coordinates":[[[-80.44,-1.94],[-80.25,-2.12],[-80.22,-2.23],[-80.28,-2.27],[-80.28,-2.33],[-80.37,-2.35],[-80.46,-2.41],[-80.5,-2.5],[-80.56,-2.51],[-80.66,-2.42],[-80.78,-2.39],[-80.87,-2.32],[-80.91,-2.22],[-80.77,-2.13],[-80.73,-2.03],[-80.76,-1.98],[-80.72,-1.93],[-80.77,-1.76],[-80.8,-1.71],[-80.75,-1.67],[-80.64,-1.68],[-80.62,-1.71],[-80.52,-1.92],[-80.44,-1.94]]]},"properties":{"id_prov":24,"dpa_provin":"24","dpa_despro":"SANTA ELENA","dpa_valor":0,"dpa_anio":"2012","rei_codigo":"03","ren_codigo":"02","pee_codigo":"593","codigo":24,"codigo_1":24,"nombre":"SANTA ELENA","pob_mas":156862,"pob_fem":151831,"pob_tot":308693,"si_lee":253021,"no_lee":18910,"total":271931,"analfabeti":5.2,"promedio_e":8.48,"pobres_nbi":220020,"no_pobres":84861,"pob_nopob_":304881,"densidad":83.65,"edad_media":26.92,"cartodb_id":24,"created_at":"2015-04-20T23:35:12Z","updated_at":"2015-04-21T16:06:23Z","name":"SANTA ELENA"},"id":"24"},{"type":"Feature","geometry":{"type":"MultiPolygon","coordinates":[[[[-79.21,-2.31],[-79.23,-2.41],[-79.3,-2.4],[-79.36,-2.36],[-79.29,-2.32],[-79.21,-2.31]]],[[[-79.46,-0.5],[-79.48,-0.54],[-79.51,-0.63],[-79.6,-0.74],[-79.61,-0.85],[-79.66,-0.9],[-79.71,-0.88],[-79.62,-0.56],[-79.54,-0.49],[-79.46,-0.5]]],[[[-78.92,0.36],[-79.02,0.27],[-79.13,0.32],[-79.27,0.32],[-79.16,0.35],[-79.02,0.31],[-78.92,0.36],[-78.92,0.36]]]]},"properties":{"id_prov":25,"dpa_provin":"90","dpa_despro":"ZONA NO DELIMITADA","dpa_valor":0,"dpa_anio":"2012","rei_codigo":"90","ren_codigo":"05","pee_codigo":"593","codigo":90,"codigo_1":90,"nombre":"ZONAS NO DELIMITADAS","pob_mas":17156,"pob_fem":15228,"pob_tot":32384,"si_lee":24845,"no_lee":3844,"total":28689,"analfabeti":12,"promedio_e":6.84,"pobres_nbi":30158,"no_pobres":2131,"pob_nopob_":32289,"densidad":41.35,"edad_media":26.04,"cartodb_id":25,"created_at":"2015-04-20T23:35:12Z","updated_at":"2015-04-21T16:07:03Z","name":"ZONAS NO DELIMITADAS"},"id":"90"}]}